[{"OBJECT_NAME":"STARLINK-2253","OBJECT_ID":"2021-041AV","EPOCH":"2026-03-09T12:19:56.497440","MEAN_MOTION":15.29352118,"ECCENTRICITY":0.00015568,"INCLINATION":53.1558,"RA_OF_ASC_NODE":140.3593,"ARG_OF_PERICENTER":88.0661,"MEAN_ANOMALY":272.0518,"EPHEMERIS_TYPE":0,"CLASSIFICATION_TYPE":"U","NORAD_CAT_ID":48596,"ELEMENT_SET_NO":999,"REV_AT_EPOCH":26552,"BSTAR":0.00018559269,"MEAN_MOTION_DOT":5.002e-5,"MEAN_MOTION_DDOT":0},{"OBJECT_NAME":"TIANMU-1 20","OBJECT_ID":"2023-208B","EPOCH":"2026-03-09T21:50:45.859200","MEAN_MOTION":15.31029249,"ECCENTRICITY":0.00061925,"INCLINATION":97.4323,"RA_OF_ASC_NODE":185.4313,"ARG_OF_PERICENTER":324.1763,"MEAN_ANOMALY":35.9062,"EPHEMERIS_TYPE":0,"CLASSIFICATION_TYPE":"U","NORAD_CAT_ID":58661,"ELEMENT_SET_NO":999,"REV_AT_EPOCH":12222,"BSTAR":0.0003681641,"MEAN_MOTION_DOT":0.00010969,"MEAN_MOTION_DDOT":0}]
